{
    "links": {
        "self": "http://www.neowsapp.com/rest/v1/neo/3553702?api_key=iIulBulltgU6a56xZRHN4H3l9WmuAYTsLGpBGhQ2"
    },
    "id": "3553702",
    "neo_reference_id": "3553702",
    "name": "(2010 XG64)",
    "designation": "2010 XG64",
    "nasa_jpl_url": "http://ssd.jpl.nasa.gov/sbdb.cgi?sstr=3553702",
    "absolute_magnitude_h": 27.913,
    "estimated_diameter": {
        "kilometers": {
            "estimated_diameter_min": 0.0069495227,
            "estimated_diameter_max": 0.0155396051
        },
        "meters": {
            "estimated_diameter_min": 6.9495226802,
            "estimated_diameter_max": 15.539605124
        },
        "miles": {
            "estimated_diameter_min": 0.0043182319,
            "estimated_diameter_max": 0.00965586
        },
        "feet": {
            "estimated_diameter_min": 22.80027199,
            "estimated_diameter_max": 50.9829580752
        }
    },
    "is_potentially_hazardous_asteroid": false,
    "close_approach_data": [
        {
            "close_approach_date": "2010-12-16",
            "close_approach_date_full": "2010-Dec-16 11:57",
            "epoch_date_close_approach": 1292500620000,
            "relative_velocity": {
                "kilometers_per_second": "4.3346977555",
                "kilometers_per_hour": "15604.9119199375",
                "miles_per_hour": "9696.2854093634"
            },
            "miss_distance": {
                "astronomical": "0.0260981528",
                "lunar": "10.1521814392",
                "kilometers": "3904228.069814536",
                "miles": "2425974.8286351568"
            },
            "orbiting_body": "Earth"
        }
    ],
    "orbital_data": {
        "orbit_id": "5",
        "orbit_determination_date": "2017-04-06 08:55:11",
        "first_observation_date": "2010-12-14",
        "last_observation_date": "2010-12-14",
        "data_arc_in_days": null,
        "observations_used": 15,
        "orbit_uncertainty": "9",
        "minimum_orbit_intersection": ".026102",
        "jupiter_tisserand_invariant": "4.383",
        "epoch_osculation": "2455544.5",
        "eccentricity": ".3479593185973132",
        "semi_major_axis": "1.548224316362062",
        "inclination": "2.158411899236336",
        "ascending_node_longitude": "256.9889824001837",
        "orbital_period": "703.6379475766734",
        "perihelion_distance": "1.009505238204928",
        "perihelion_argument": "190.1277811406955",
        "aphelion_distance": "2.086943394519197",
        "perihelion_time": "2455549.506796215629",
        "mean_anomaly": "357.4383890979245",
        "mean_motion": ".5116267552650319",
        "equinox": "J2000",
        "orbit_class": {
            "orbit_class_type": "APO",
            "orbit_class_description": "Near-Earth asteroid orbits which cross the Earth’s orbit similar to that of 1862 Apollo",
            "orbit_class_range": "a (semi-major axis) > 1.0 AU; q (perihelion) < 1.017 AU"
        }
    },
    "is_sentry_object": false
}